OBJECT_NAME,OBJECT_ID,EPOCH,MEAN_MOTION,ECCENTRICITY,INCLINATION,RA_OF_ASC_NODE,ARG_OF_PERICENTER,MEAN_ANOMALY,EPHEMERIS_TYPE,CLASSIFICATION_TYPE,NORAD_CAT_ID,ELEMENT_SET_NO,REV_AT_EPOCH,BSTAR,MEAN_MOTION_DOT,MEAN_MOTION_DDOT
PADRE,2025-135AH,2025-12-19T05:21:34.077312,14.91647938,.00029604,97.7592,104.5218,121.2529,238.8980,0,U,64559,999,2701,.12504285E-3,.1201E-4,0