PADRE                   
1 64559U 25135AH  25353.22331108  .00001201  00000+0  12504-3 0  9991
2 64559  97.7592 104.5218 0002960 121.2529 238.8980 14.91647938 27010